NORAD_CAT_ID,OBJECT_NAME,OBJECT_TYPE,EPOCH,MEAN_MOTION,ECCENTRICITY,INCLINATION,RA_OF_ASC_NODE,ARG_OF_PERICENTER,MEAN_ANOMALY,BSTAR,MEAN_MOTION_DOT,MEAN_MOTION_DDOT,TLE_LINE0,TLE_LINE1,TLE_LINE2,SEMIMAJOR_AXIS,PERIOD,APOGEE,PERIGEE,DECAYED
53721.0,STARLINK-4707,PAYLOAD,2023-05-28 16:25:34,15.08839788,0.0001167,53.2156,134.9806,76.1606,283.9516,5.7489e-05,6.27e-06,0.0,0 STARLINK-4707,1 53721U 22107X   23148.68442560  .00000627  00000-0  57489-4 0  9995,2 53721  53.2156 134.9806 0001167  76.1606 283.9516 15.08839788 40571,6917.881,95.438,540.553,538.939,0.0
53721.0,STARLINK-4707,PAYLOAD,2023-05-29 05:08:39,15.08841644,0.0001174,53.2157,132.6016,77.6983,282.414,5.113e-05,5.26e-06,0.0,0 STARLINK-4707,1 53721U 22107X   23149.21434457  .00000526  00000-0  51130-4 0  9996,2 53721  53.2157 132.6016 0001174  77.6983 282.4140 15.08841644 41114,6917.875,95.437,540.553,538.928,0.0
53721.0,STARLINK-4707,PAYLOAD,2023-05-29 16:16:21,15.08840403,0.0001183,53.2157,130.5202,76.8823,283.2301,3.69e-05,2.99e-06,0.0,0 STARLINK-4707,1 53721U 22107X   23149.67802533  .00000299  00000-0  36900-4 0  9995,2 53721  53.2157 130.5202 0001183  76.8823 283.2301 15.08840403 41189,6917.879,95.438,540.563,538.926,0.0
53721.0,STARLINK-4707,PAYLOAD,2023-05-30 04:59:26,15.08840937,0.0001189,53.2157,128.1412,79.0969,281.0156,3.6501e-05,2.93e-06,0.0,0 STARLINK-4707,1 53721U 22107X   23150.20794489  .00000293  00000-0  36501-4 0  9997,2 53721  53.2157 128.1412 0001189  79.0969 281.0156 15.08840937 40801,6917.878,95.437,540.565,538.92,0.0
53721.0,STARLINK-4707,PAYLOAD,2023-05-30 08:10:12,15.08841879,0.0001198,53.2156,127.5461,80.0524,280.0603,3.3749e-05,2.49e-06,0.0,0 STARLINK-4707,1 53721U 22107X   23150.34042415  .00000249  00000-0  33749-4 0  9999,2 53721  53.2156 127.5461 0001198  80.0524 280.0603 15.08841879 41281,6917.875,95.437,540.568,538.911,0.0
53721.0,STARLINK-4707,PAYLOAD,2023-05-31 04:50:13,15.08851683,0.0001391,53.2157,123.6786,82.502,277.613,-8.1013e-05,-1.577e-05,0.0,0 STARLINK-4707,1 53721U 22107X   23151.20154069 -.00001577  00000-0 -81013-4 0  9998,2 53721  53.2157 123.6786 0001391  82.5020 277.6130 15.08851683 41418,6917.845,95.437,540.672,538.747,0.0
53721.0,STARLINK-4707,PAYLOAD,2023-05-31 22:19:28,15.08835507,0.0001157,53.2157,120.4093,83.1047,277.0076,2.1566e-05,5.5e-07,0.0,0 STARLINK-4707,1 53721U 22107X   23151.93018827  .00000055  00000-0  21566-4 0  9994,2 53721  53.2157 120.4093 0001157  83.1047 277.0076 15.08835507 41522,6917.894,95.438,540.56,538.959,0.0
53721.0,STARLINK-4707,PAYLOAD,2023-06-01 01:30:14,15.08835899,0.0001164,53.2158,119.8147,82.0611,278.0513,2.5588e-05,1.19e-06,0.0,0 STARLINK-4707,1 53721U 22107X   23152.06266829  .00000119  00000-0  25588-4 0  9995,2 53721  53.2158 119.8147 0001164  82.0611 278.0513 15.08835899 41080,6917.893,95.438,540.563,538.953,0.0
53721.0,STARLINK-4707,PAYLOAD,2023-06-01 07:51:46,15.08840379,0.000116,53.2156,118.6244,83.6743,276.4381,3.6162e-05,2.88e-06,0.0,0 STARLINK-4707,1 53721U 22107X   23152.32762527  .00000288  00000-0  36162-4 0  9997,2 53721  53.2156 118.6244 0001160  83.6743 276.4381 15.08840379 41581,6917.879,95.438,540.547,538.942,0.0
53721.0,STARLINK-4707,PAYLOAD,2023-06-02 02:56:24,15.08833721,0.0001112,53.2157,115.0556,94.433,265.6789,2.3506e-05,8.6e-07,0.0,0 STARLINK-4707,1 53721U 22107X   23153.12251107  .00000086  00000-0  23506-4 0  9997,2 53721  53.2157 115.0556 0001112  94.4330 265.6789 15.08833721 41246,6917.9,95.438,540.534,538.995,0.0
53721.0,STARLINK-4707,PAYLOAD,2023-06-02 04:31:47,15.08836058,0.0001076,53.2148,114.7581,103.9727,256.1385,5.9763e-05,6.63e-06,0.0,0 STARLINK-4707,1 53721U 22107X   23153.18874804  .00000663  00000-0  59763-4 0  9993,2 53721  53.2148 114.7581 0001076 103.9727 256.1385 15.08836058 41710,6917.892,95.438,540.502,539.013,0.0
53721.0,STARLINK-4707,PAYLOAD,2023-06-03 04:22:35,15.08829382,0.0001109,53.2153,110.3005,98.955,261.1567,-2.0802e-05,-6.19e-06,0.0,0 STARLINK-4707,1 53721U 22107X   23154.18236007 -.00000619  00000-0 -20802-4 0  9996,2 53721  53.2153 110.3005 0001109  98.9550 261.1567 15.08829382 41409,6917.913,95.438,540.545,539.011,0.0
53721.0,STARLINK-4707,PAYLOAD,2023-06-03 20:16:27,15.08824931,0.0001053,53.216,107.3256,90.4857,269.6256,0.0001897,2.731e-05,0.0,0 STARLINK-4707,1 53721U 22107X   23154.84476036  .00002731  00000-0  18970-3 0  9994,2 53721  53.2160 107.3256 0001053  90.4857 269.6256 15.08824931 41960,6917.926,95.439,540.52,539.063,0.0
53721.0,STARLINK-4707,PAYLOAD,2023-06-04 02:37:59,15.08840051,0.0001095,53.216,106.1362,88.3312,271.7805,7.1034e-05,8.43e-06,0.0,0 STARLINK-4707,1 53721U 22107X   23155.10971400  .00000843  00000-0  71034-4 0  9992,2 53721  53.2160 106.1362 0001095  88.3312 271.7805 15.08840051 41542,6917.88,95.438,540.503,538.988,0.0
53721.0,STARLINK-4707,PAYLOAD,2023-06-04 04:13:22,15.0884196,0.0001099,53.216,105.8388,88.3521,271.7597,8.6144e-05,1.084e-05,0.0,0 STARLINK-4707,1 53721U 22107X   23155.17595242  .00001084  00000-0  86144-4 0  9991,2 53721  53.2160 105.8388 0001099  88.3521 271.7597 15.08841960 42013,6917.874,95.437,540.5,538.979,0.0
53721.0,STARLINK-4707,PAYLOAD,2023-06-05 04:04:09,15.0884337,0.0001142,53.216,101.3777,95.3586,264.7537,0.00013789,1.908e-05,0.0,0 STARLINK-4707,1 53721U 22107X   23156.16955015  .00001908  00000-0  13789-3 0  9998,2 53721  53.2160 101.3777 0001142  95.3586 264.7537 15.08843370 41702,6917.87,95.437,540.525,538.945,0.0
53721.0,STARLINK-4707,PAYLOAD,2023-06-05 13:36:28,15.08835974,0.0001366,53.2164,99.5937,83.6057,276.5091,2.2085e-05,6.4e-07,0.0,0 STARLINK-4707,1 53721U 22107X   23156.56699920  .00000064  00000-0  22085-4 0  9994,2 53721  53.2164  99.5937 0001366  83.6057 276.5091 15.08835974 42228,6917.893,95.438,540.703,538.813,0.0
53721.0,STARLINK-4707,PAYLOAD,2023-06-06 02:19:33,15.08839844,8.26e-05,53.2165,97.2123,94.0687,266.04,-2.7849e-05,-7.31e-06,0.0,0 STARLINK-4707,1 53721U 22107X   23157.09691947 -.00000731  00000-0 -27849-4 0  9990,2 53721  53.2165  97.2123 0000826  94.0687 266.0400 15.08839844 42303,6917.881,95.438,540.317,539.174,0.0
53721.0,STARLINK-4707,PAYLOAD,2023-06-06 15:02:38,15.08840184,0.000115,53.2163,94.8348,96.1314,263.9809,2.4824e-05,1.07e-06,0.0,0 STARLINK-4707,1 53721U 22107X   23157.62683692  .00000107  00000-0  24824-4 0  9992,2 53721  53.2163  94.8348 0001150  96.1314 263.9809 15.08840184 41929,6917.88,95.438,540.54,538.949,0.0
53721.0,STARLINK-4707,PAYLOAD,2023-06-07 02:10:20,15.08848265,0.00012,53.2165,92.7533,95.7383,264.3746,3.3171e-05,2.4e-06,0.0,0 STARLINK-4707,1 53721U 22107X   23158.09051157  .00000240  00000-0  33171-4 0  9992,2 53721  53.2165  92.7533 0001200  95.7383 264.3746 15.08848265 41991,6917.855,95.437,540.55,538.89,0.0
53721.0,STARLINK-4707,PAYLOAD,2023-06-07 19:39:35,15.08822173,0.0001224,53.2166,89.483,91.9528,268.1604,0.00024037,3.538e-05,0.0,0 STARLINK-4707,1 53721U 22107X   23158.81916212  .00003538  00000-0  24037-3 0  9997,2 53721  53.2166  89.4830 0001224  91.9528 268.1604 15.08822173 42569,6917.935,95.439,540.647,538.953,0.0
53721.0,STARLINK-4707,PAYLOAD,2023-06-08 00:25:44,15.08835582,0.0001194,53.2166,88.5905,91.2729,268.84,7.5419e-05,9.13e-06,0.0,0 STARLINK-4707,1 53721U 22107X   23159.01787902  .00000913  00000-0  75419-4 0  9997,2 53721  53.2166  88.5905 0001194  91.2729 268.8400 15.08835582 42136,6917.894,95.438,540.585,538.933,0.0
53721.0,STARLINK-4707,PAYLOAD,2023-06-08 05:11:53,15.08840109,0.000121,53.2166,87.6985,91.7591,268.354,6.3164e-05,7.18e-06,0.0,0 STARLINK-4707,1 53721U 22107X   23159.21659686  .00000718  00000-0  63164-4 0  9993,2 53721  53.2166  87.6985 0001210  91.7591 268.3540 15.08840109 42620,6917.88,95.438,540.582,538.908,0.0
53721.0,STARLINK-4707,PAYLOAD,2023-06-09 01:51:55,15.08837664,0.0001304,53.2164,83.8322,95.1039,265.0102,1.5539e-05,-4.1e-07,0.0,0 STARLINK-4707,1 53721U 22107X   23160.07772142 -.00000041  00000-0  15539-4 0  9995,2 53721  53.2164  83.8322 0001304  95.1039 265.0102 15.08837664 42293,6917.888,95.438,540.655,538.85,0.0
53721.0,STARLINK-4707,PAYLOAD,2023-06-09 11:24:13,15.0883734,0.0001358,53.2165,82.0475,93.3949,266.7199,2.7698e-05,1.53e-06,0.0,0 STARLINK-4707,1 53721U 22107X   23160.47516179  .00000153  00000-0  27698-4 0  9997,2 53721  53.2165  82.0475 0001358  93.3949 266.7199 15.08837340 42816,6917.889,95.438,540.693,538.814,0.0
53721.0,STARLINK-4707,PAYLOAD,2023-06-10 11:15:01,15.08839986,0.0001271,53.2173,77.5897,99.3878,260.7258,3.6288e-05,2.9e-06,0.0,0 STARLINK-4707,1 53721U 22107X   23161.46876180  .00000290  00000-0  36288-4 0  9995,2 53721  53.2173  77.5897 0001271  99.3878 260.7258 15.08839986 42967,6917.88,95.438,540.625,538.866,0.0
53721.0,STARLINK-4707,PAYLOAD,2023-06-10 17:36:34,15.08834782,0.0001143,53.2171,76.4022,102.5489,257.5631,-2.524e-05,-6.89e-06,0.0,0 STARLINK-4707,1 53721U 22107X   23161.73372866 -.00000689  00000-0 -25240-4 0  9997,2 53721  53.2171  76.4022 0001143 102.5489 257.5631 15.08834782 42548,6917.896,95.438,540.552,538.971,0.0
53721.0,STARLINK-4707,PAYLOAD,2023-06-10 19:11:57,15.08840272,0.0001187,53.2169,76.1047,101.8715,258.241,-8.9196e-05,-1.707e-05,0.0,0 STARLINK-4707,1 53721U 22107X   23161.79996848 -.00001707  00000-0 -89196-4 0  9997,2 53721  53.2169  76.1047 0001187 101.8715 258.2410 15.08840272 43018,6917.88,95.438,540.566,538.923,0.0
53721.0,STARLINK-4707,PAYLOAD,2023-06-11 03:08:52,15.08843621,0.0001177,53.2167,74.6171,94.0758,266.0369,2.9449e-05,1.81e-06,0.0,0 STARLINK-4707,1 53721U 22107X   23162.13116227  .00000181  00000-0  29449-4 0  9999,2 53721  53.2167  74.6171 0001177  94.0758 266.0369 15.08843621 42601,6917.869,95.437,540.549,538.92,0.0
53721.0,STARLINK-4707,PAYLOAD,2023-06-11 12:41:11,15.08832286,0.0001214,53.2169,72.8325,90.4264,269.6868,9.2404e-05,1.183e-05,0.0,0 STARLINK-4707,1 53721U 22107X   23162.52860860  .00001183  00000-0  92404-4 0  9995,2 53721  53.2169  72.8325 0001214  90.4264 269.6868 15.08832286 43124,6917.904,95.438,540.609,538.929,0.0
